0 OPS 2644 DEB
1 03840U 69010C   13282.44455588  .00000057  00000-0  29806-3 0  2353
2 03840 080.6031 081.3856 0032773 332.1694 057.9041 12.58423804 50767
0 OPS 2644 DEB
1 03840U 69010C   13285.85646850  .00000057  00000-0  29806-3 0  2366
2 03840 080.6002 078.6500 0033108 325.6451 034.2364 12.58424418 51197
0 OPS 2644 DEB
1 03840U 69010C   13291.43410012  .00000035  00000-0  16565-3 0  2371
2 03840 080.6052 074.1863 0032820 312.7599 103.7518 12.58424078 51897
0 OPS 2644 DEB
1 03840U 69010C   13293.84059058  .00000057  00000-0  29533-3 0  2381
2 03840 080.6050 072.2594 0032760 307.6143 205.9698 12.58424231 52195
